{
  "type": "FeatureCollection",
  "features": [
    {
      "type": "Feature",
      "properties": {
        "norad_id": 66443,
        "name": "STARLINK-35219",
        "group": "last-30-days",
        "lat": 7.139946663214034,
        "lon": 60.25985074601682,
        "alt_km": 442.8065419872228,
        "timestamp": "2025-12-11T20:41:13.845952+00:00",
        "meta_object_name": "STARLINK-35219",
        "meta_object_id": "2025-259X",
        "meta_epoch": "2025-12-11T14:00:01.999872",
        "meta_mean_motion": 15.40642964,
        "meta_eccentricity": 0.00010052,
        "meta_inclination": 43.0009,
        "meta_ra_of_asc_node": 54.1405,
        "meta_arg_of_pericenter": 283.8758,
        "meta_mean_anomaly": 339.5851,
        "meta_ephemeris_type": 0,
        "meta_classification_type": "U",
        "meta_norad_cat_id": 66443,
        "meta_element_set_no": 999,
        "meta_rev_at_epoch": 598,
        "meta_bstar": 0.0020860505,
        "meta_mean_motion_dot": 0.00087676,
        "meta_mean_motion_ddot": 0,
        "tle_line1": "1 66443U 25259X   25345.58335648  .00087676  00000+0  20861-2 0  9999",
        "tle_line2": "2 66443  43.0009  54.1405 0001005 283.8758 339.5851 15.40642964  5984"
      },
      "geometry": {
        "type": "Point",
        "coordinates": [
          60.25985074601682,
          7.139946663214034
        ]
      }
    },
    {
      "type": "Feature",
      "properties": {
        "norad_id": 66444,
        "name": "STARLINK-35360",
        "group": "last-30-days",
        "lat": 30.137693124228154,
        "lon": 90.97972400528784,
        "alt_km": 436.6558141419464,
        "timestamp": "2025-12-11T20:41:13.845963+00:00",
        "meta_object_name": "STARLINK-35360",
        "meta_object_id": "2025-259Y",
        "meta_epoch": "2025-12-11T14:00:01.999872",
        "meta_mean_motion": 15.43281226,
        "meta_eccentricity": 0.00018508,
        "meta_inclination": 43.0011,
        "meta_ra_of_asc_node": 54.0552,
        "meta_arg_of_pericenter": 269.5033,
        "meta_mean_anomaly": 28.929,
        "meta_ephemeris_type": 0,
        "meta_classification_type": "U",
        "meta_norad_cat_id": 66444,
        "meta_element_set_no": 999,
        "meta_rev_at_epoch": 609,
        "meta_bstar": -0.056702367,
        "meta_mean_motion_dot": -0.02307398,
        "meta_mean_motion_ddot": 0,
        "tle_line1": "1 66444U 25259Y   25345.58335648 -.02307398  00000+0 -56702-1 0  9992",
        "tle_line2": "2 66444  43.0011  54.0552 0001850 269.5033  28.9290 15.43281226  6097"
      },
      "geometry": {
        "type": "Point",
        "coordinates": [
          90.97972400528784,
          30.137693124228154
        ]
      }
    },
    {
      "type": "Feature",
      "properties": {
        "norad_id": 66445,
        "name": "STARLINK-34698",
        "group": "last-30-days",
        "lat": 15.404612869330606,
        "lon": 69.70120821833875,
        "alt_km": 441.7778935202241,
        "timestamp": "2025-12-11T20:41:13.845976+00:00",
        "meta_object_name": "STARLINK-34698",
        "meta_object_id": "2025-259Z",
        "meta_epoch": "2025-12-11T14:00:01.999872",
        "meta_mean_motion": 15.40609185,
        "meta_eccentricity": 0.00020158,
        "meta_inclination": 43.001,
        "meta_ra_of_asc_node": 54.1091,
        "meta_arg_of_pericenter": 288.0999,
        "meta_mean_anomaly": 347.7991,
        "meta_ephemeris_type": 0,
        "meta_classification_type": "U",
        "meta_norad_cat_id": 66445,
        "meta_element_set_no": 999,
        "meta_rev_at_epoch": 598,
        "meta_bstar": 0.0025136056,
        "meta_mean_motion_dot": 0.00105846,
        "meta_mean_motion_ddot": 0,
        "tle_line1": "1 66445U 25259Z   25345.58335648  .00105846  00000+0  25136-2 0  9991",
        "tle_line2": "2 66445  43.0010  54.1091 0002015 288.0999 347.7991 15.40609185  5989"
      },
      "geometry": {
        "type": "Point",
        "coordinates": [
          69.70120821833875,
          15.404612869330606
        ]
      }
    },
    {
      "type": "Feature",
      "properties": {
        "norad_id": 66446,
        "name": "STARLINK-34986",
        "group": "last-30-days",
        "lat": 23.296331197404438,
        "lon": 79.99289108755022,
        "alt_km": 440.36551245202463,
        "timestamp": "2025-12-11T20:41:13.846016+00:00",
        "meta_object_name": "STARLINK-34986",
        "meta_object_id": "2025-259AA",
        "meta_epoch": "2025-12-11T14:00:01.999872",
        "meta_mean_motion": 15.4141536,
        "meta_eccentricity": 0.00012736,
        "meta_inclination": 43.001,
        "meta_ra_of_asc_node": 54.0793,
        "meta_arg_of_pericenter": 279.7438,
        "meta_mean_anomaly": 8.2072,
        "meta_ephemeris_type": 0,
        "meta_classification_type": "U",
        "meta_norad_cat_id": 66446,
        "meta_element_set_no": 999,
        "meta_rev_at_epoch": 609,
        "meta_bstar": -0.026066871,
        "meta_mean_motion_dot": -0.01014219,
        "meta_mean_motion_ddot": 0,
        "tle_line1": "1 66446U 25259AA  25345.58335648 -.01014219  00000+0 -26067-1 0  9991",
        "tle_line2": "2 66446  43.0010  54.0793 0001273 279.7438   8.2072 15.41415360  6091"
      },
      "geometry": {
        "type": "Point",
        "coordinates": [
          79.99289108755022,
          23.296331197404438
        ]
      }
    },
    {
      "type": "Feature",
      "properties": {
        "norad_id": 66447,
        "name": "STARLINK-34851",
        "group": "last-30-days",
        "lat": 42.36395599976384,
        "lon": 130.51756505099513,
        "alt_km": 407.81599653037847,
        "timestamp": "2025-12-11T20:41:13.846053+00:00",
        "meta_object_name": "STARLINK-34851",
        "meta_object_id": "2025-259AB",
        "meta_epoch": "2025-12-10T05:41:44.121408",
        "meta_mean_motion": 15.50651186,
        "meta_eccentricity": 0.0001321,
        "meta_inclination": 42.9984,
        "meta_ra_of_asc_node": 61.8661,
        "meta_arg_of_pericenter": 284.8329,
        "meta_mean_anomaly": 75.2384,
        "meta_ephemeris_type": 0,
        "meta_classification_type": "U",
        "meta_norad_cat_id": 66447,
        "meta_element_set_no": 999,
        "meta_rev_at_epoch": 567,
        "meta_bstar": 0.0017574,
        "meta_mean_motion_dot": 0.00104412,
        "meta_mean_motion_ddot": 0,
        "tle_line1": "1 66447U 25259AB  25344.23731622  .00104412  00000+0  17574-2 0  9991",
        "tle_line2": "2 66447  42.9984  61.8661 0001321 284.8329  75.2384 15.50651186  5671"
      },
      "geometry": {
        "type": "Point",
        "coordinates": [
          130.51756505099513,
          42.36395599976384
        ]
      }
    },
    {
      "type": "Feature",
      "properties": {
        "norad_id": 66448,
        "name": "STARLINK-35355",
        "group": "last-30-days",
        "lat": 42.786590099661545,
        "lon": 135.6805795580374,
        "alt_km": 408.62733749124527,
        "timestamp": "2025-12-11T20:41:13.846069+00:00",
        "meta_object_name": "STARLINK-35355",
        "meta_object_id": "2025-259AC",
        "meta_epoch": "2025-12-11T12:35:48.635808",
        "meta_mean_motion": 15.51423561,
        "meta_eccentricity": 0.00054567,
        "meta_inclination": 43.001,
        "meta_ra_of_asc_node": 54.3241,
        "meta_arg_of_pericenter": 293.1921,
        "meta_mean_anomaly": 66.8365,
        "meta_ephemeris_type": 0,
        "meta_classification_type": "U",
        "meta_norad_cat_id": 66448,
        "meta_element_set_no": 999,
        "meta_rev_at_epoch": 598,
        "meta_bstar": 0.0027883046,
        "meta_mean_motion_dot": 0.00172055,
        "meta_mean_motion_ddot": 0,
        "tle_line1": "1 66448U 25259AC  25345.52486847  .00172055  00000+0  27883-2 0  9993",
        "tle_line2": "2 66448  43.0010  54.3241 0005456 293.1921  66.8365 15.51423561  5983"
      },
      "geometry": {
        "type": "Point",
        "coordinates": [
          135.6805795580374,
          42.786590099661545
        ]
      }
    },
    {
      "type": "Feature",
      "properties": {
        "norad_id": 66449,
        "name": "STARLINK-34720",
        "group": "last-30-days",
        "lat": 41.11038014544259,
        "lon": 121.84177920167916,
        "alt_km": 423.03263055145817,
        "timestamp": "2025-12-11T20:41:13.846080+00:00",
        "meta_object_name": "STARLINK-34720",
        "meta_object_id": "2025-259AD",
        "meta_epoch": "2025-12-11T14:00:01.999872",
        "meta_mean_motion": 15.47065084,
        "meta_eccentricity": 0.00010241,
        "meta_inclination": 43.0013,
        "meta_ra_of_asc_node": 53.9974,
        "meta_arg_of_pericenter": 274.7358,
        "meta_mean_anomaly": 47.0232,
        "meta_ephemeris_type": 0,
        "meta_classification_type": "U",
        "meta_norad_cat_id": 66449,
        "meta_element_set_no": 999,
        "meta_rev_at_epoch": 598,
        "meta_bstar": -0.043475364,
        "meta_mean_motion_dot": -0.02009914,
        "meta_mean_motion_ddot": 0,
        "tle_line1": "1 66449U 25259AD  25345.58335648 -.02009914  00000+0 -43475-1 0  9993",
        "tle_line2": "2 66449  43.0013  53.9974 0001024 274.7358  47.0232 15.47065084  5982"
      },
      "geometry": {
        "type": "Point",
        "coordinates": [
          121.84177920167916,
          41.11038014544259
        ]
      }
    }
  ]
}